{
    "links": {
        "self": "http://www.neowsapp.com/rest/v1/neo/3144510?api_key=iIulBulltgU6a56xZRHN4H3l9WmuAYTsLGpBGhQ2"
    },
    "id": "3144510",
    "neo_reference_id": "3144510",
    "name": "(2002 XB40)",
    "designation": "2002 XB40",
    "nasa_jpl_url": "http://ssd.jpl.nasa.gov/sbdb.cgi?sstr=3144510",
    "absolute_magnitude_h": 23.9,
    "estimated_diameter": {
        "kilometers": {
            "estimated_diameter_min": 0.04411182,
            "estimated_diameter_max": 0.0986370281
        },
        "meters": {
            "estimated_diameter_min": 44.1118199997,
            "estimated_diameter_max": 98.6370281305
        },
        "miles": {
            "estimated_diameter_min": 0.0274098057,
            "estimated_diameter_max": 0.0612901888
        },
        "feet": {
            "estimated_diameter_min": 144.7238235278,
            "estimated_diameter_max": 323.6123073718
        }
    },
    "is_potentially_hazardous_asteroid": false,
    "close_approach_data": [
        {
            "close_approach_date": "2002-12-05",
            "close_approach_date_full": "2002-Dec-05 08:52",
            "epoch_date_close_approach": 1039078320000,
            "relative_velocity": {
                "kilometers_per_second": "14.2924989669",
                "kilometers_per_hour": "51452.9962809952",
                "miles_per_hour": "31970.890939155"
            },
            "miss_distance": {
                "astronomical": "0.0251130234",
                "lunar": "9.7689661026",
                "kilometers": "3756854.809900158",
                "miles": "2334401.3312438604"
            },
            "orbiting_body": "Earth"
        },
        {
            "close_approach_date": "2078-07-14",
            "close_approach_date_full": "2078-Jul-14 12:50",
            "epoch_date_close_approach": 3425028600000,
            "relative_velocity": {
                "kilometers_per_second": "22.7176714082",
                "kilometers_per_hour": "81783.6170694019",
                "miles_per_hour": "50817.1591729292"
            },
            "miss_distance": {
                "astronomical": "0.3367286345",
                "lunar": "130.9874388205",
                "kilometers": "50373886.489208515",
                "miles": "31300881.623226907"
            },
            "orbiting_body": "Earth"
        }
    ],
    "orbital_data": {
        "orbit_id": "8",
        "orbit_determination_date": "2017-04-06 09:14:32",
        "first_observation_date": "2002-12-10",
        "last_observation_date": "2002-12-28",
        "data_arc_in_days": 18,
        "observations_used": 29,
        "orbit_uncertainty": "8",
        "minimum_orbit_intersection": ".0105405",
        "jupiter_tisserand_invariant": "3.791",
        "epoch_osculation": "2452620.5",
        "eccentricity": ".5539132289481108",
        "semi_major_axis": "1.855954346456287",
        "inclination": "6.799335233589988",
        "ascending_node_longitude": "255.8704335413301",
        "orbital_period": "923.5264972313797",
        "perihelion_distance": ".8279166816304044",
        "perihelion_argument": "117.964314821072",
        "aphelion_distance": "2.88399201128217",
        "perihelion_time": "2452573.566298671954",
        "mean_anomaly": "18.29523303202357",
        "mean_motion": ".3898101473853065",
        "equinox": "J2000",
        "orbit_class": {
            "orbit_class_type": "APO",
            "orbit_class_description": "Near-Earth asteroid orbits which cross the Earth’s orbit similar to that of 1862 Apollo",
            "orbit_class_range": "a (semi-major axis) > 1.0 AU; q (perihelion) < 1.017 AU"
        }
    },
    "is_sentry_object": false
}